start=new Date('2022-01-26T00:00:00.000Z').valueOf();
sats=[{"OBJECT_TYPE":"PAYLOAD","EPOCH":"2022-01-25T08:34:45.582528","MEAN_MOTION_DOT":"-0.00001469","REV_AT_EPOCH":"3959","MEAN_ELEMENT_THEORY":"SGP4","TLE_LINE1":"1 48604U 21041BD  22025.35747202 -.00001469  00000-0 -79764-4 0  9990","REF_FRAME":"TEME","LAUNCH_DATE":"2021-05-15","CENTER_NAME":"EARTH","NORAD_CAT_ID":"48604","APOAPSIS":"548.145","ECCENTRICITY":"0.00013390","BSTAR":"-0.00007976400000","CLASSIFICATION_TYPE":"U","EPHEMERIS_TYPE":"0","INCLINATION":"53.0560","SEMIMAJOR_AXIS":"6925.353","OBJECT_NAME":"STARLINK-2757","COUNTRY_CODE":"US","RA_OF_ASC_NODE":"54.8301","DECAY_DATE":null,"FILE":"3283407","RCS_SIZE":"LARGE","MEAN_MOTION":"15.06398516","ELEMENT_SET_NO":"999","PERIAPSIS":"546.291","GP_ID":"194613353","TLE_LINE2":"2 48604  53.0560  54.8301 0001339  69.5111 290.6022 15.06398516 39594","PERIOD":"95.592","TIME_SYSTEM":"UTC","ARG_OF_PERICENTER":"69.5111","SITE":"AFETR","MEAN_ANOMALY":"290.6022","MEAN_MOTION_DDOT":"0.0000000000000","OBJECT_ID":"2021-041BD"},{"GP_ID":"194612857","ELEMENT_SET_NO":"999","PERIAPSIS":"546.172","MEAN_MOTION":"15.06400147","RCS_SIZE":"LARGE","FILE":"3283407","OBJECT_ID":"2021-044A","MEAN_MOTION_DDOT":"0.0000000000000","MEAN_ANOMALY":"279.2478","SITE":"AFETR","TIME_SYSTEM":"UTC","ARG_OF_PERICENTER":"80.8681","PERIOD":"95.592","TLE_LINE2":"2 48638  53.0569  29.4479 0001504  80.8681 279.2478 15.06400147 37057","CENTER_NAME":"EARTH","LAUNCH_DATE":"2021-05-26","TLE_LINE1":"1 48638U 21044A   22025.44177331 -.00000006  00000-0  18491-4 0  9995","MEAN_ELEMENT_THEORY":"SGP4","REF_FRAME":"TEME","OBJECT_TYPE":"PAYLOAD","EPOCH":"2022-01-25T10:36:09.213984","MEAN_MOTION_DOT":"-0.00000006","REV_AT_EPOCH":"3705","DECAY_DATE":null,"RA_OF_ASC_NODE":"29.4479","COUNTRY_CODE":"US","OBJECT_NAME":"STARLINK-2758","BSTAR":"0.00001849100000","INCLINATION":"53.0569","CLASSIFICATION_TYPE":"U","EPHEMERIS_TYPE":"0","SEMIMAJOR_AXIS":"6925.348","NORAD_CAT_ID":"48638","APOAPSIS":"548.255","ECCENTRICITY":"0.00015040"},{"MEAN_MOTION_DDOT":"0.0000000000000","MEAN_ANOMALY":"293.6397","OBJECT_ID":"2021-044B","PERIOD":"95.592","TLE_LINE2":"2 48639  53.0575  29.5063 0001357  66.4734 293.6397 15.06394549 37058","SITE":"AFETR","ARG_OF_PERICENTER":"66.4734","TIME_SYSTEM":"UTC","GP_ID":"194613101","PERIAPSIS":"546.290","ELEMENT_SET_NO":"999","FILE":"3283407","MEAN_MOTION":"15.06394549","RCS_SIZE":"LARGE","COUNTRY_CODE":"US","DECAY_DATE":null,"RA_OF_ASC_NODE":"29.5063","APOAPSIS":"548.170","ECCENTRICITY":"0.00013570","NORAD_CAT_ID":"48639","OBJECT_NAME":"STARLINK-2739","SEMIMAJOR_AXIS":"6925.365","BSTAR":"-0.00008151600000","INCLINATION":"53.0575","CLASSIFICATION_TYPE":"U","EPHEMERIS_TYPE":"0","CENTER_NAME":"EARTH","REF_FRAME":"TEME","TLE_LINE1":"1 48639U 21044B   22025.42702762 -.00001495  00000-0 -81516-4 0  9998","MEAN_ELEMENT_THEORY":"SGP4","MEAN_MOTION_DOT":"-0.00001495","OBJECT_TYPE":"PAYLOAD","REV_AT_EPOCH":"3705","EPOCH":"2022-01-25T10:14:55.186368","LAUNCH_DATE":"2021-05-26"},{"OBJECT_NAME":"STARLINK-2736","SEMIMAJOR_AXIS":"6925.352","EPHEMERIS_TYPE":"0","BSTAR":"-0.00007630400000","INCLINATION":"53.0574","CLASSIFICATION_TYPE":"U","APOAPSIS":"548.266","ECCENTRICITY":"0.00015150","NORAD_CAT_ID":"48640","DECAY_DATE":null,"RA_OF_ASC_NODE":"29.6681","COUNTRY_CODE":"US","LAUNCH_DATE":"2021-05-26","REF_FRAME":"TEME","MEAN_ELEMENT_THEORY":"SGP4","TLE_LINE1":"1 48640U 21044C   22025.39385092 -.00001418  00000-0 -76304-4 0  9993","OBJECT_TYPE":"PAYLOAD","EPOCH":"2022-01-25T09:27:08.719488","MEAN_MOTION_DOT":"-0.00001418","REV_AT_EPOCH":"3704","CENTER_NAME":"EARTH","SITE":"AFETR","TIME_SYSTEM":"UTC","ARG_OF_PERICENTER":"72.8183","PERIOD":"95.592","TLE_LINE2":"2 48640  53.0574  29.6681 0001515  72.8183 287.2972 15.06398874 37043","OBJECT_ID":"2021-044C","MEAN_MOTION_DDOT":"0.0000000000000","MEAN_ANOMALY":"287.2972","MEAN_MOTION":"15.06398874","RCS_SIZE":"LARGE","FILE":"3283407","GP_ID":"194613857","PERIAPSIS":"546.168","ELEMENT_SET_NO":"999"},{"OBJECT_ID":"2021-044D","MEAN_ANOMALY":"291.3040","MEAN_MOTION_DDOT":"0.0000000000000","TIME_SYSTEM":"UTC","ARG_OF_PERICENTER":"68.8115","SITE":"AFETR","TLE_LINE2":"2 48641  53.0558  34.1925 0001548  68.8115 291.3040 15.06393845 36992","PERIOD":"95.593","ELEMENT_SET_NO":"999","PERIAPSIS":"546.160","GP_ID":"194612322","RCS_SIZE":"LARGE","MEAN_MOTION":"15.06393845","FILE":"3283407","RA_OF_ASC_NODE":"34.1925","DECAY_DATE":null,"COUNTRY_CODE":"US","CLASSIFICATION_TYPE":"U","BSTAR":"0.00010700000000","INCLINATION":"53.0558","EPHEMERIS_TYPE":"0","SEMIMAJOR_AXIS":"6925.367","OBJECT_NAME":"STARLINK-2754","NORAD_CAT_ID":"48641","APOAPSIS":"548.304","ECCENTRICITY":"0.00015480","CENTER_NAME":"EARTH","LAUNCH_DATE":"2021-05-26","EPOCH":"2022-01-25T11:59:06.411264","OBJECT_TYPE":"PAYLOAD","MEAN_MOTION_DOT":"0.00001312","REV_AT_EPOCH":"3699","MEAN_ELEMENT_THEORY":"SGP4","TLE_LINE1":"1 48641U 21044D   22025.49937976  .00001312  00000-0  10700-3 0  9997","REF_FRAME":"TEME"},{"OBJECT_NAME":"STARLINK-2646","SEMIMAJOR_AXIS":"6925.367","BSTAR":"-0.00007686800000","EPHEMERIS_TYPE":"0","INCLINATION":"53.0577","CLASSIFICATION_TYPE":"U","APOAPSIS":"548.261","ECCENTRICITY":"0.00014860","NORAD_CAT_ID":"48642","DECAY_DATE":null,"RA_OF_ASC_NODE":"34.1217","COUNTRY_CODE":"US","LAUNCH_DATE":"2021-05-26","REF_FRAME":"TEME","TLE_LINE1":"1 48642U 21044E   22025.51318796 -.00001426  00000-0 -76868-4 0  9990","MEAN_ELEMENT_THEORY":"SGP4","OBJECT_TYPE":"PAYLOAD","REV_AT_EPOCH":"3699","MEAN_MOTION_DOT":"-0.00001426","EPOCH":"2022-01-25T12:18:59.439744","CENTER_NAME":"EARTH","SITE":"AFETR","TIME_SYSTEM":"UTC","ARG_OF_PERICENTER":"71.1299","PERIOD":"95.593","TLE_LINE2":"2 48642  53.0577  34.1217 0001486  71.1299 288.9851 15.06394078 36990","OBJECT_ID":"2021-044E","MEAN_MOTION_DDOT":"0.0000000000000","MEAN_ANOMALY":"288.9851","MEAN_MOTION":"15.06394078","RCS_SIZE":"LARGE","FILE":"3283407","GP_ID":"194612358","PERIAPSIS":"546.203","ELEMENT_SET_NO":"999"},{"SITE":"AFETR","ARG_OF_PERICENTER":"80.3557","TIME_SYSTEM":"UTC","PERIOD":"95.592","TLE_LINE2":"2 48643  53.0554  34.2004 0001384  80.3557 279.7588 15.06404253 36999","OBJECT_ID":"2021-044F","MEAN_MOTION_DDOT":"0.0000000000000","MEAN_ANOMALY":"279.7588","MEAN_MOTION":"15.06404253","RCS_SIZE":"LARGE","FILE":"3283407","GP_ID":"194612602","PERIAPSIS":"546.242","ELEMENT_SET_NO":"999","OBJECT_NAME":"STARLINK-2704","SEMIMAJOR_AXIS":"6925.336","EPHEMERIS_TYPE":"0","BSTAR":"-0.00017740000000","INCLINATION":"53.0554","CLASSIFICATION_TYPE":"U","ECCENTRICITY":"0.00013840","APOAPSIS":"548.159","NORAD_CAT_ID":"48643","DECAY_DATE":null,"RA_OF_ASC_NODE":"34.2004","COUNTRY_CODE":"US","LAUNCH_DATE":"2021-05-26","REF_FRAME":"TEME","MEAN_ELEMENT_THEORY":"SGP4","TLE_LINE1":"1 48643U 21044F   22025.49568434 -.00002923  00000-0 -17740-3 0  9990","REV_AT_EPOCH":"3699","OBJECT_TYPE":"PAYLOAD","MEAN_MOTION_DOT":"-0.00002923","EPOCH":"2022-01-25T11:53:47.126976","CENTER_NAME":"EARTH"},{"FILE":"3283407","MEAN_MOTION":"15.06399521","RCS_SIZE":"LARGE","GP_ID":"194613358","ELEMENT_SET_NO":"999","PERIAPSIS":"546.144","PERIOD":"95.592","TLE_LINE2":"2 48644  53.0574  34.5271 0001547  74.1509 285.9651 15.06399521 36980","SITE":"AFETR","ARG_OF_PERICENTER":"74.1509","TIME_SYSTEM":"UTC","MEAN_MOTION_DDOT":"0.0000000000000","MEAN_ANOMALY":"285.9651","OBJECT_ID":"2021-044G","MEAN_ELEMENT_THEORY":"SGP4","TLE_LINE1":"1 48644U 21044G   22025.42566456 -.00001334  00000-0 -70704-4 0  9991","REF_FRAME":"TEME","MEAN_MOTION_DOT":"-0.00001334","OBJECT_TYPE":"PAYLOAD","REV_AT_EPOCH":"3698","EPOCH":"2022-01-25T10:12:57.417984","LAUNCH_DATE":"2021-05-26","CENTER_NAME":"EARTH","NORAD_CAT_ID":"48644","ECCENTRICITY":"0.00015470","APOAPSIS":"548.286","OBJECT_NAME":"STARLINK-2695","BSTAR":"-0.00007070400000","CLASSIFICATION_TYPE":"U","EPHEMERIS_TYPE":"0","INCLINATION":"53.0574","SEMIMAJOR_AXIS":"6925.350","COUNTRY_CODE":"US","DECAY_DATE":null,"RA_OF_ASC_NODE":"34.5271"},{"PERIAPSIS":"546.265","ELEMENT_SET_NO":"999","GP_ID":"194617870","RCS_SIZE":"LARGE","MEAN_MOTION":"15.06398814","FILE":"3283558","OBJECT_ID":"2021-044H","MEAN_ANOMALY":"291.5050","MEAN_MOTION_DDOT":"0.0000000000000","ARG_OF_PERICENTER":"68.6085","TIME_SYSTEM":"UTC","SITE":"AFETR","TLE_LINE2":"2 48645  53.0575  34.2443 0001375  68.6085 291.5050 15.06398814 37897","PERIOD":"95.592","CENTER_NAME":"EARTH","LAUNCH_DATE":"2021-05-26","OBJECT_TYPE":"PAYLOAD","REV_AT_EPOCH":"3789","MEAN_MOTION_DOT":"-0.00000710","EPOCH":"2022-01-25T11:43:11.877024","REF_FRAME":"TEME","MEAN_ELEMENT_THEORY":"SGP4","TLE_LINE1":"1 48645U 21044H   22025.48833191 -.00000710  00000-0 -28789-4 0  9994","RA_OF_ASC_NODE":"34.2443","DECAY_DATE":null,"COUNTRY_CODE":"US","SEMIMAJOR_AXIS":"6925.352","BSTAR":"-0.00002878900000","CLASSIFICATION_TYPE":"U","EPHEMERIS_TYPE":"0","INCLINATION":"53.0575","OBJECT_NAME":"STARLINK-2733","APOAPSIS":"548.169","ECCENTRICITY":"0.00013750","NORAD_CAT_ID":"48645"},{"CENTER_NAME":"EARTH","OBJECT_TYPE":"PAYLOAD","MEAN_MOTION_DOT":"0.00000042","EPOCH":"2022-01-25T10:02:20.234400","REV_AT_EPOCH":"3698","REF_FRAME":"TEME","TLE_LINE1":"1 48646U 21044J   22025.41828975  .00000042  00000-0  21722-4 0  9998","MEAN_ELEMENT_THEORY":"SGP4","LAUNCH_DATE":"2021-05-26","COUNTRY_CODE":"US","RA_OF_ASC_NODE":"34.5418","DECAY_DATE":null,"APOAPSIS":"548.109","ECCENTRICITY":"0.00012870","NORAD_CAT_ID":"48646","SEMIMAJOR_AXIS":"6925.353","BSTAR":"0.00002172200000","INCLINATION":"53.0556","EPHEMERIS_TYPE":"0","CLASSIFICATION_TYPE":"U","OBJECT_NAME":"STARLINK-2732","PERIAPSIS":"546.327","ELEMENT_SET_NO":"999","GP_ID":"194612858","FILE":"3283407","RCS_SIZE":"LARGE","MEAN_MOTION":"15.06398520","MEAN_ANOMALY":"270.6848","MEAN_MOTION_DDOT":"0.0000000000000","OBJECT_ID":"2021-044J","TLE_LINE2":"2 48646  53.0556  34.5418 0001287  89.4288 270.6848 15.06398520 36986","PERIOD":"95.592","ARG_OF_PERICENTER":"89.4288","TIME_SYSTEM":"UTC","SITE":"AFETR"}];
